SL-16 R/B               
1 28353U 04021B   25148.19717803 -.00000044  00000+0  17752-5 0  9999
2 28353  71.0003 111.5962 0002953 129.3489 230.7896 14.14552022 82465
CZ-4B R/B               
1 28415U 04035C   25148.84857466  .00006133  00000+0  25249-3 0  9997
2 28415  97.3798 182.0613 0034267 254.0022 105.7440 15.23947363136467
CZ-2C R/B               
1 28480U 04046B   25148.50885374  .00000156  00000+0  73856-4 0  9990
2 28480  98.1942  76.3302 0138468 278.3256  80.2247 14.26828230 67834
ARIANE 5 R/B            
1 28499U 04049H   25148.37902868  .00001067  00000+0  12597-3 0  9992
2 28499  98.2318 301.9094 0085128 194.6619 165.2125 14.84470302103459
CZ-2D R/B               
1 28738U 05024B   25148.44426398  .00019062  00000+0  43202-3 0  9990
2 28738  97.3668 152.2998 0005965  10.5969 349.5403 15.43120154 95604
ALOS (DAICHI)           
1 28931U 06002A   25148.89443457  .00001410  00000+0  25068-3 0  9994
2 28931  98.0837 102.2710 0002257  94.3532 265.7931 14.68671436 32043
H-2A R/B                
1 28932U 06002B   25148.75270383  .00009052  00000+0  52747-3 0  9990
2 28932  98.2106 268.3764 0059990 126.8122 233.8630 15.10716449 51449
RESURS-DK 1             
1 29228U 06021A   25148.55094123  .00002328  00000+0  14574-3 0  9999
2 29228  69.9341 253.4363 0006314 223.4513 136.6155 15.10903818 44435
GENESIS 1               
1 29252U 06029A   25148.22742936  .00238019  28025-4  71708-3 0  9992
2 29252  64.4985  49.2717 0026249 281.8548  77.9667 15.91391127 44297
CZ-4B R/B               
1 29507U 06046C   25148.83574210  .00004079  00000+0  22713-3 0  9996
2 29507  97.5957 189.5039 0036197 169.2917 190.9093 15.13645051 16956
CZ-2C R/B               
1 31114U 07010B   25148.81157022  .00000086  00000+0  58113-4 0  9999
2 31114  98.3771 271.6705 0059854  43.6003 316.9882 14.20123810939293
COSMO-SKYMED 1          
1 31598U 07023A   25148.87264641  .00000710  00000+0  79746-4 0  9990
2 31598  97.8872 333.3290 0001259  92.0300 268.1062 14.89842214972414
GENESIS 2               
1 31789U 07028A   25148.60383845  .00100216  00000+0  62764-3 0  9999
2 31789  64.4756 100.5347 0021181 310.5681  49.3625 15.75965866991027
COSMOS 2428             
1 31792U 07029A   25148.50417771  .00000159  00000+0  11137-3 0  9992
2 31792  70.9360  81.9941 0005623 284.0241  76.0255 14.12848827923811
SL-16 R/B               
1 31793U 07029B   25148.51462604  .00000352  00000+0  20709-3 0  9999
2 31793  70.9767  51.8157 0001647 272.8525 259.6813 14.14783146925039
KORONAS-FOTON           
1 33504U 09003A   25148.88778655  .00009524  00000+0  26584-3 0  9998
2 33504  82.4330 210.1830 0013832  98.8624 261.4186 15.36476790902058
CZ-2C R/B               
1 37731U 11030B   25148.82706251  .00000963  00000+0  13080-3 0  9999
2 37731  97.8140 107.8220 0053083 195.7270 195.3926 14.80170358747945
H-2A R/B                
1 38341U 12025E   25148.86976596  .00001963  00000+0  19170-3 0  9994
2 38341  98.4375  89.4893 0046836 161.5427 198.7503 14.92924763705777
SHIJIAN-16 (SJ-16)      
1 39358U 13057A   25148.87141796  .00001102  00000+0  11321-3 0  9991
2 39358  74.9724   3.8018 0016277  85.3735 274.9311 14.91328088629106
SL-4 R/B                
1 39679U 14021B   25148.63055418  .00014669  00000+0  40131-3 0  9991
2 39679  51.6099 278.6978 0113749 150.3996 210.3488 15.31280879612493
ALOS-2                  
1 39766U 14029A   25148.71404785  .00001588  00000+0  21952-3 0  9996
2 39766  97.9209 246.3956 0001643  95.9726 264.1673 14.79473996594765
YAOGAN-29               
1 41038U 15069A   25148.82159120  .00000426  00000+0  59700-4 0  9991
2 41038  98.0350 171.1495 0001878 142.3957 217.7388 14.82622778513660
ASTRO-H (HITOMI)        
1 41337U 16012A   25148.38823024  .00002872  00000+0  17643-3 0  9990
2 41337  31.0013  34.4835 0010153 347.0690  12.9686 15.07953817509107
HXMT (HUIYAN)           
1 42758U 17034A   25148.70726500  .00003250  00000+0  18729-3 0  9997
2 42758  43.0133 156.0635 0036204 238.1890 121.5429 15.13685129439320
CZ-2C R/B               
1 43521U 18054D   25148.85532501  .00034750  00000+0  55794-3 0  9993
2 43521  35.1397  53.8259 0032678  67.0023 293.4145 15.51386272384149
SAOCOM 1A               
1 43641U 18076A   25148.86600354  .00000393  00000+0  55949-4 0  9992
2 43641  97.8889 336.1265 0001485  89.8261 270.3122 14.82158327359170
H-2A R/B                
1 43682U 18084L   25148.15298157  .00012508  00000+0  42601-3 0  9993
2 43682  98.8743 302.5808 0031661 285.1368  74.6366 15.30110001361970
SAOCOM 1B               
1 46265U 20059A   25148.82974741  .00000413  00000+0  58485-4 0  9992
2 46265  97.8888 335.1938 0001431  89.0817 271.0560 14.82158165256563
CSS (TIANHE)            
1 48274U 21035A   25148.84049248  .00005797  00000+0  79026-4 0  9990
2 48274  41.4630 137.9999 0007154 317.4080  42.6202 15.58116250233134
COSMOS 2550             
1 48865U 21056A   25148.62545257  .00004948  00000+0  15614-3 0  9995
2 48865  67.1395 183.2751 0008424 269.2447  90.7742 15.33823300219754
CZ-2C R/B               
1 52794U 22058K   25148.19268798  .00020654  00000+0  49941-3 0  9990
2 52794  50.1935 327.7940 0057274  94.3619 266.3892 15.39371390165976
GSLV R/B                
1 54149U 22138AN  25148.57076658  .00002867  00000+0  25998-3 0  9991
2 54149  87.3788 261.8310 0024868 105.4599 254.9381 14.94734687141313
XRISM                   
1 57800U 23137A   25148.85187932  .00005359  00000+0  33448-3 0  9995
2 57800  31.0028 320.4660 0008144  58.0536 302.0893 15.07946652 94790
ACS3                    
1 59588U 24077B   25148.43568003  .00008780  00000+0  86796-2 0  9994
2 59588  97.4805 146.9507 0053943  83.8278 276.9021 13.77964578 54779
